CTC2_L_00173001-01
1 54142U 25581LA  26037.47792824  .00000000  00000+0  00000-0 0  9997
2 54142  90.0000   0.0000 0000000   0.0000   0.0000 14.89338779    17
CTC2_L_00173001-02
1 54143U 22175OM  26037.47792824  .00000000  00000+0  00000-0 0  9994
2 54143  90.0000   0.0000 0000000   0.0000  90.0000 14.89338779    17
CTC2_L_00173001-03
1 54144U 24510SN  26037.47792824  .00000000  00000+0  00000-0 0  9990
2 54144  90.0000   0.0000 0000000   0.0000 180.0000 14.89338779    18
CTC2_L_00173001-04
1 54145U 22269KF  26037.47792824  .00000000  00000+0  00000-0 0  9990
2 54145  90.0000   0.0000 0000000   0.0000 270.0000 14.89338779    19
CTC2_L_00173002-01
1 54146U 22292ZN  26037.47792824  .00000000  00000+0  00000-0 0  9997
2 54146  90.0000  12.0000 0000000   0.0000  12.0000 14.89338779    17
CTC2_L_00173002-02
1 54147U 23689HJ  26037.47792824  .00000000  00000+0  00000-0 0  9999
2 54147  90.0000  12.0000 0000000   0.0000 102.0000 14.89338779    18
CTC2_L_00173002-03
1 54148U 25525IB  26037.47792824  .00000000  00000+0  00000-0 0  9991
2 54148  90.0000  12.0000 0000000   0.0000 192.0000 14.89338779    18
CTC2_L_00173002-04
1 54149U 22304FH  26037.47792824  .00000000  00000+0  00000-0 0  9994
2 54149  90.0000  12.0000 0000000   0.0000 282.0000 14.89338779    19
CTC2_L_00173003-01
1 54150U 25347NW  26037.47792824  .00000000  00000+0  00000-0 0  9996
2 54150  90.0000  24.0000 0000000   0.0000  24.0000 14.89338779    18
CTC2_L_00173003-02
1 54151U 25919TC  26037.47792824  .00000000  00000+0  00000-0 0  9992
2 54151  90.0000  24.0000 0000000   0.0000 114.0000 14.89338779    19
CTC2_L_00173003-03
1 54152U 25752FP  26037.47792824  .00000000  00000+0  00000-0 0  9998
2 54152  90.0000  24.0000 0000000   0.0000 204.0000 14.89338779    10
CTC2_L_00173003-04
1 54153U 24022SN  26037.47792824  .00000000  00000+0  00000-0 0  9998
2 54153  90.0000  24.0000 0000000   0.0000 294.0000 14.89338779    10
CTC2_L_00173004-01
1 54154U 23271OD  26037.47792824  .00000000  00000+0  00000-0 0  9994
2 54154  90.0000  36.0000 0000000   0.0000  36.0000 14.89338779    18
CTC2_L_00173004-02
1 54155U 24185JO  26037.47792824  .00000000  00000+0  00000-0 0  9990
2 54155  90.0000  36.0000 0000000   0.0000 126.0000 14.89338779    19
CTC2_L_00173004-03
1 54156U 22282AM  26037.47792824  .00000000  00000+0  00000-0 0  9997
2 54156  90.0000  36.0000 0000000   0.0000 216.0000 14.89338779    10
CTC2_L_00173004-04
1 54157U 23698KS  26037.47792824  .00000000  00000+0  00000-0 0  9990
2 54157  90.0000  36.0000 0000000   0.0000 306.0000 14.89338779    11
CTC2_L_00173005-01
1 54158U 22852TO  26037.47792824  .00000000  00000+0  00000-0 0  9992
2 54158  90.0000  48.0000 0000000   0.0000  48.0000 14.89338779    18
CTC2_L_00173005-02
1 54159U 22374ML  26037.47792824  .00000000  00000+0  00000-0 0  9992
2 54159  90.0000  48.0000 0000000   0.0000 138.0000 14.89338779    19
CTC2_L_00173005-03
1 54160U 23761ZV  26037.47792824  .00000000  00000+0  00000-0 0  9995
2 54160  90.0000  48.0000 0000000   0.0000 228.0000 14.89338779    11
CTC2_L_00173005-04
1 54161U 22410HI  26037.47792824  .00000000  00000+0  00000-0 0  9996
2 54161  90.0000  48.0000 0000000   0.0000 318.0000 14.89338779    12
CTC2_L_00173006-01
1 54162U 25352UJ  26037.47792824  .00000000  00000+0  00000-0 0  9995
2 54162  90.0000  60.0000 0000000   0.0000  60.0000 14.89338779    11
CTC2_L_00173006-02
1 54163U 24285RI  26037.47792824  .00000000  00000+0  00000-0 0  9990
2 54163  90.0000  60.0000 0000000   0.0000 150.0000 14.89338779    12
CTC2_L_00173006-03
1 54164U 22138OI  26037.47792824  .00000000  00000+0  00000-0 0  9996
2 54164  90.0000  60.0000 0000000   0.0000 240.0000 14.89338779    13
CTC2_L_00173006-04
1 54165U 22746VI  26037.47792824  .00000000  00000+0  00000-0 0  9992
2 54165  90.0000  60.0000 0000000   0.0000 330.0000 14.89338779    14
CTC2_L_00173007-01
1 54166U 22069ZB  26037.47792824  .00000000  00000+0  00000-0 0  9991
2 54166  90.0000  72.0000 0000000   0.0000  72.0000 14.89338779    11
CTC2_L_00173007-02
1 54167U 22457KH  26037.47792824  .00000000  00000+0  00000-0 0  9993
2 54167  90.0000  72.0000 0000000   0.0000 162.0000 14.89338779    12
CTC2_L_00173007-03
1 54168U 26049BT  26037.47792824  .00000000  00000+0  00000-0 0  9995
2 54168  90.0000  72.0000 0000000   0.0000 252.0000 14.89338779    13
CTC2_L_00173007-04
1 54169U 23597CD  26037.47792824  .00000000  00000+0  00000-0 0  9991
2 54169  90.0000  72.0000 0000000   0.0000 342.0000 14.89338779    14
CTC2_L_00173008-01
1 54170U 23436TS  26037.47792824  .00000000  00000+0  00000-0 0  9995
2 54170  90.0000  84.0000 0000000   0.0000  84.0000 14.89338779    12
CTC2_L_00173008-02
1 54171U 25429CY  26037.47792824  .00000000  00000+0  00000-0 0  9990
2 54171  90.0000  84.0000 0000000   0.0000 174.0000 14.89338779    13
CTC2_L_00173008-03
1 54172U 25924AL  26037.47792824  .00000000  00000+0  00000-0 0  9991
2 54172  90.0000  84.0000 0000000   0.0000 264.0000 14.89338779    14
CTC2_L_00173008-04
1 54173U 25573DQ  26037.47792824  .00000000  00000+0  00000-0 0  9992
2 54173  90.0000  84.0000 0000000   0.0000 354.0000 14.89338779    15
CTC2_L_00173009-01
1 54174U 22745VH  26037.47792824  .00000000  00000+0  00000-0 0  9991
2 54174  90.0000  96.0000 0000000   0.0000  96.0000 14.89338779    12
CTC2_L_00173009-02
1 54175U 23284UN  26037.47792824  .00000000  00000+0  00000-0 0  9991
2 54175  90.0000  96.0000 0000000   0.0000 186.0000 14.89338779    13
CTC2_L_00173009-03
1 54176U 25591XG  26037.47792824  .00000000  00000+0  00000-0 0  9995
2 54176  90.0000  96.0000 0000000   0.0000 276.0000 14.89338779    14
CTC2_L_00173009-04
1 54177U 25667CQ  26037.47792824  .00000000  00000+0  00000-0 0  9990
2 54177  90.0000  96.0000 0000000   0.0000   6.0000 14.89338779    16
CTC2_L_00173010-01
1 54178U 26011MS  26037.47792824  .00000000  00000+0  00000-0 0  9995
2 54178  90.0000 108.0000 0000000   0.0000 108.0000 14.89338779    14
CTC2_L_00173010-02
1 54179U 22095OE  26037.47792824  .00000000  00000+0  00000-0 0  9994
2 54179  90.0000 108.0000 0000000   0.0000 198.0000 14.89338779    14
CTC2_L_00173010-03
1 54180U 26997OF  26037.47792824  .00000000  00000+0  00000-0 0  9991
2 54180  90.0000 108.0000 0000000   0.0000 288.0000 14.89338779    16
CTC2_L_00173010-04
1 54181U 23399JV  26037.47792824  .00000000  00000+0  00000-0 0  9995
2 54181  90.0000 108.0000 0000000   0.0000  18.0000 14.89338779    18
CTC2_L_00173011-01
1 54182U 26376SX  26037.47792824  .00000000  00000+0  00000-0 0  9994
2 54182  90.0000 120.0000 0000000   0.0000 120.0000 14.89338779    17
CTC2_L_00173011-02
1 54183U 22358E   26037.47792824  .00000000  00000+0  00000-0 0  9991
2 54183  90.0000 120.0000 0000000   0.0000 210.0000 14.89338779    18
CTC2_L_00173011-03
1 54184U 22088DK  26037.47792824  .00000000  00000+0  00000-0 0  9992
2 54184  90.0000 120.0000 0000000   0.0000 300.0000 14.89338779    19
CTC2_L_00173011-04
1 54185U 25788VR  26037.47792824  .00000000  00000+0  00000-0 0  9993
2 54185  90.0000 120.0000 0000000   0.0000  30.0000 14.89338779    10
CTC2_L_00173012-01
1 54186U 25745GX  26037.47792824  .00000000  00000+0  00000-0 0  9997
2 54186  90.0000 132.0000 0000000   0.0000 132.0000 14.89338779    17
CTC2_L_00173012-02
1 54187U 23787YC  26037.47792824  .00000000  00000+0  00000-0 0  9992
2 54187  90.0000 132.0000 0000000   0.0000 222.0000 14.89338779    18
CTC2_L_00173012-03
1 54188U 22335BU  26037.47792824  .00000000  00000+0  00000-0 0  9991
2 54188  90.0000 132.0000 0000000   0.0000 312.0000 14.89338779    19
CTC2_L_00173012-04
1 54189U 22925ZQ  26037.47792824  .00000000  00000+0  00000-0 0  9997
2 54189  90.0000 132.0000 0000000   0.0000  42.0000 14.89338779    10
CTC2_L_00173013-01
1 54190U 25477SN  26037.47792824  .00000000  00000+0  00000-0 0  9994
2 54190  90.0000 144.0000 0000000   0.0000 144.0000 14.89338779    18
CTC2_L_00173013-02
1 54191U 25930AI  26037.47792824  .00000000  00000+0  00000-0 0  9999
2 54191  90.0000 144.0000 0000000   0.0000 234.0000 14.89338779    19
CTC2_L_00173013-03
1 54192U 26321OG  26037.47792824  .00000000  00000+0  00000-0 0  9995
2 54192  90.0000 144.0000 0000000   0.0000 324.0000 14.89338779    10
CTC2_L_00173013-04
1 54193U 23417UX  26037.47792824  .00000000  00000+0  00000-0 0  9999
2 54193  90.0000 144.0000 0000000   0.0000  54.0000 14.89338779    11
CTC2_L_00173014-01
1 54194U 23489KV  26037.47792824  .00000000  00000+0  00000-0 0  9999
2 54194  90.0000 156.0000 0000000   0.0000 156.0000 14.89338779    18
CTC2_L_00173014-02
1 54195U 22805VW  26037.47792824  .00000000  00000+0  00000-0 0  9991
2 54195  90.0000 156.0000 0000000   0.0000 246.0000 14.89338779    19
CTC2_L_00173014-03
1 54196U 23960DG  26037.47792824  .00000000  00000+0  00000-0 0  9995
2 54196  90.0000 156.0000 0000000   0.0000 336.0000 14.89338779    10
CTC2_L_00173014-04
1 54197U 22518PK  26037.47792824  .00000000  00000+0  00000-0 0  9994
2 54197  90.0000 156.0000 0000000   0.0000  66.0000 14.89338779    11
CTC2_L_00173015-01
1 54198U 22705QH  26037.47792824  .00000000  00000+0  00000-0 0  9993
2 54198  90.0000 168.0000 0000000   0.0000 168.0000 14.89338779    18
CTC2_L_00173015-02
1 54199U 26692YY  26037.47792824  .00000000  00000+0  00000-0 0  9993
2 54199  90.0000 168.0000 0000000   0.0000 258.0000 14.89338779    19
CTC2_L_00173015-03
1 54200U 22184SH  26037.47792824  .00000000  00000+0  00000-0 0  9998
2 54200  90.0000 168.0000 0000000   0.0000 348.0000 14.89338779    12
CTC2_L_00173015-04
1 54201U 22094TV  26037.47792824  .00000000  00000+0  00000-0 0  9999
2 54201  90.0000 168.0000 0000000   0.0000  78.0000 14.89338779    13
CTC2_L_00173016-01
1 54202U 25583AW  26037.47792824  .00000000  00000+0  00000-0 0  9996
2 54202  90.0000 180.0000 0000000   0.0000 180.0000 14.89338779    12
CTC2_L_00173016-02
1 54203U 24285IU  26037.47792824  .00000000  00000+0  00000-0 0  9995
2 54203  90.0000 180.0000 0000000   0.0000 270.0000 14.89338779    13
